ONEWEB-0228             
1 48780U 21045P   24269.33954100  .00000011  00000+0 -60691-5 0  9996
2 48780  87.9105  24.5217 0001797 104.4361 255.6969 13.15551954161518
